{
  "type": "FeatureCollection",
  "features": [
    {
      "type": "Feature",
      "properties": {
        "norad_id": 40878,
        "name": "YAOGAN-27",
        "group": "resource",
        "lat": NaN,
        "lon": NaN,
        "alt_km": NaN,
        "timestamp": "2025-12-01T03:03:40.644356+00:00",
        "meta": {
          "OBJECT_NAME": "YAOGAN-27",
          "OBJECT_ID": "2015-040A",
          "EPOCH": "2025-11-30T22:01:26.222304",
          "MEAN_MOTION": 13.16059522,
          "ECCENTRICITY": 0.000779,
          "INCLINATION": 100.1002,
          "RA_OF_ASC_NODE": 325.0728,
          "ARG_OF_PERICENTER": 315.7938,
          "MEAN_ANOMALY": 44.2553,
          "EPHEMERIS_TYPE": 0,
          "CLASSIFICATION_TYPE": "U",
          "NORAD_CAT_ID": 40878,
          "ELEMENT_SET_NO": 999,
          "REV_AT_EPOCH": 49158,
          "BSTAR": 0.000154,
          "MEAN_MOTION_DOT": 1.6e-07,
          "MEAN_MOTION_DDOT": 0
        }
      },
      "geometry": {
        "type": "Point",
        "coordinates": [
          NaN,
          NaN
        ]
      }
    },
    {
      "type": "Feature",
      "properties": {
        "norad_id": 40894,
        "name": "GAOFEN-9 01",
        "group": "resource",
        "lat": NaN,
        "lon": NaN,
        "alt_km": NaN,
        "timestamp": "2025-12-01T03:03:40.644363+00:00",
        "meta": {
          "OBJECT_NAME": "GAOFEN-9 01",
          "OBJECT_ID": "2015-047A",
          "EPOCH": "2025-11-30T20:25:45.638688",
          "MEAN_MOTION": 14.82372905,
          "ECCENTRICITY": 0.0029015,
          "INCLINATION": 97.6559,
          "RA_OF_ASC_NODE": 14.3197,
          "ARG_OF_PERICENTER": 71.705,
          "MEAN_ANOMALY": 288.7317,
          "EPHEMERIS_TYPE": 0,
          "CLASSIFICATION_TYPE": "U",
          "NORAD_CAT_ID": 40894,
          "ELEMENT_SET_NO": 999,
          "REV_AT_EPOCH": 55080,
          "BSTAR": 0.00015988,
          "MEAN_MOTION_DOT": 1.238e-05,
          "MEAN_MOTION_DDOT": 0
        }
      },
      "geometry": {
        "type": "Point",
        "coordinates": [
          NaN,
          NaN
        ]
      }
    },
    {
      "type": "Feature",
      "properties": {
        "norad_id": 41026,
        "name": "YAOGAN-28",
        "group": "resource",
        "lat": NaN,
        "lon": NaN,
        "alt_km": NaN,
        "timestamp": "2025-12-01T03:03:40.644374+00:00",
        "meta": {
          "OBJECT_NAME": "YAOGAN-28",
          "OBJECT_ID": "2015-064A",
          "EPOCH": "2025-11-30T19:42:12.411072",
          "MEAN_MOTION": 15.24031785,
          "ECCENTRICITY": 0.0011762,
          "INCLINATION": 97.2793,
          "RA_OF_ASC_NODE": 112.9528,
          "ARG_OF_PERICENTER": 166.0893,
          "MEAN_ANOMALY": 194.0671,
          "EPHEMERIS_TYPE": 0,
          "CLASSIFICATION_TYPE": "U",
          "NORAD_CAT_ID": 41026,
          "ELEMENT_SET_NO": 999,
          "REV_AT_EPOCH": 56043,
          "BSTAR": 0.00039043,
          "MEAN_MOTION_DOT": 9.418e-05,
          "MEAN_MOTION_DDOT": 0
        }
      },
      "geometry": {
        "type": "Point",
        "coordinates": [
          NaN,
          NaN
        ]
      }
    },
    {
      "type": "Feature",
      "properties": {
        "norad_id": 41038,
        "name": "YAOGAN-29",
        "group": "resource",
        "lat": NaN,
        "lon": NaN,
        "alt_km": NaN,
        "timestamp": "2025-12-01T03:03:40.644382+00:00",
        "meta": {
          "OBJECT_NAME": "YAOGAN-29",
          "OBJECT_ID": "2015-069A",
          "EPOCH": "2025-11-30T21:01:30.999936",
          "MEAN_MOTION": 14.82860926,
          "ECCENTRICITY": 9.49e-05,
          "INCLINATION": 98.023,
          "RA_OF_ASC_NODE": 358.0091,
          "ARG_OF_PERICENTER": 13.6187,
          "MEAN_ANOMALY": 346.5051,
          "EPHEMERIS_TYPE": 0,
          "CLASSIFICATION_TYPE": "U",
          "NORAD_CAT_ID": 41038,
          "ELEMENT_SET_NO": 999,
          "REV_AT_EPOCH": 54123,
          "BSTAR": 6.7853e-05,
          "MEAN_MOTION_DOT": 4.95e-06,
          "MEAN_MOTION_DDOT": 0
        }
      },
      "geometry": {
        "type": "Point",
        "coordinates": [
          NaN,
          NaN
        ]
      }
    },
    {
      "type": "Feature",
      "properties": {
        "norad_id": 41167,
        "name": "KENT RIDGE 1",
        "group": "resource",
        "lat": NaN,
        "lon": NaN,
        "alt_km": NaN,
        "timestamp": "2025-12-01T03:03:40.644389+00:00",
        "meta": {
          "OBJECT_NAME": "KENT RIDGE 1",
          "OBJECT_ID": "2015-077B",
          "EPOCH": "2025-11-30T06:03:25.503264",
          "MEAN_MOTION": 15.21483619,
          "ECCENTRICITY": 0.00087582,
          "INCLINATION": 14.981,
          "RA_OF_ASC_NODE": 303.7869,
          "ARG_OF_PERICENTER": 314.2019,
          "MEAN_ANOMALY": 45.7584,
          "EPHEMERIS_TYPE": 0,
          "CLASSIFICATION_TYPE": "U",
          "NORAD_CAT_ID": 41167,
          "ELEMENT_SET_NO": 999,
          "REV_AT_EPOCH": 55073,
          "BSTAR": 0.00021112655,
          "MEAN_MOTION_DOT": 5.652e-05,
          "MEAN_MOTION_DDOT": 0
        }
      },
      "geometry": {
        "type": "Point",
        "coordinates": [
          NaN,
          NaN
        ]
      }
    },
    {
      "type": "Feature",
      "properties": {
        "norad_id": 41194,
        "name": "GAOFEN-4",
        "group": "resource",
        "lat": NaN,
        "lon": NaN,
        "alt_km": NaN,
        "timestamp": "2025-12-01T03:03:40.644397+00:00",
        "meta": {
          "OBJECT_NAME": "GAOFEN-4",
          "OBJECT_ID": "2015-083A",
          "EPOCH": "2025-11-30T21:07:21.929088",
          "MEAN_MOTION": 1.00267805,
          "ECCENTRICITY": 0.0003543,
          "INCLINATION": 0.1371,
          "RA_OF_ASC_NODE": 80.4522,
          "ARG_OF_PERICENTER": 108.7748,
          "MEAN_ANOMALY": 303.2916,
          "EPHEMERIS_TYPE": 0,
          "CLASSIFICATION_TYPE": "U",
          "NORAD_CAT_ID": 41194,
          "ELEMENT_SET_NO": 999,
          "REV_AT_EPOCH": 3654,
          "BSTAR": 0,
          "MEAN_MOTION_DOT": -3.12e-06,
          "MEAN_MOTION_DDOT": 0
        }
      },
      "geometry": {
        "type": "Point",
        "coordinates": [
          NaN,
          NaN
        ]
      }
    },
    {
      "type": "Feature",
      "properties": {
        "norad_id": 41240,
        "name": "JASON-3",
        "group": "resource",
        "lat": NaN,
        "lon": NaN,
        "alt_km": NaN,
        "timestamp": "2025-12-01T03:03:40.644403+00:00",
        "meta": {
          "OBJECT_NAME": "JASON-3",
          "OBJECT_ID": "2016-002A",
          "EPOCH": "2025-11-30T20:48:03.800160",
          "MEAN_MOTION": 12.87625762,
          "ECCENTRICITY": 0.0007164,
          "INCLINATION": 66.0393,
          "RA_OF_ASC_NODE": 182.7864,
          "ARG_OF_PERICENTER": 270.1399,
          "MEAN_ANOMALY": 89.8798,
          "EPHEMERIS_TYPE": 0,
          "CLASSIFICATION_TYPE": "U",
          "NORAD_CAT_ID": 41240,
          "ELEMENT_SET_NO": 999,
          "REV_AT_EPOCH": 46171,
          "BSTAR": 0.00016653,
          "MEAN_MOTION_DOT": -2e-07,
          "MEAN_MOTION_DDOT": 0
        }
      },
      "geometry": {
        "type": "Point",
        "coordinates": [
          NaN,
          NaN
        ]
      }
    },
    {
      "type": "Feature",
      "properties": {
        "norad_id": 41335,
        "name": "SENTINEL-3A",
        "group": "resource",
        "lat": NaN,
        "lon": NaN,
        "alt_km": NaN,
        "timestamp": "2025-12-01T03:03:40.644410+00:00",
        "meta": {
          "OBJECT_NAME": "SENTINEL-3A",
          "OBJECT_ID": "2016-011A",
          "EPOCH": "2025-11-30T19:39:25.907040",
          "MEAN_MOTION": 14.26739088,
          "ECCENTRICITY": 0.0001014,
          "INCLINATION": 98.6223,
          "RA_OF_ASC_NODE": 40.0045,
          "ARG_OF_PERICENTER": 90.6975,
          "MEAN_ANOMALY": 269.4321,
          "EPHEMERIS_TYPE": 0,
          "CLASSIFICATION_TYPE": "U",
          "NORAD_CAT_ID": 41335,
          "ELEMENT_SET_NO": 999,
          "REV_AT_EPOCH": 50977,
          "BSTAR": 7.8902e-05,
          "MEAN_MOTION_DOT": 1.47e-06,
          "MEAN_MOTION_DDOT": 0
        }
      },
      "geometry": {
        "type": "Point",
        "coordinates": [
          NaN,
          NaN
        ]
      }
    }
  ]
}