YAOGAN-27               
1 40878U 15040A   25334.91766461  .00000016  00000+0  15400-3 0  9993
2 40878 100.1002 325.0728 0007790 315.7938  44.2553 13.16059522491583
GAOFEN-9 01             
1 40894U 15047A   25334.85122267  .00001238  00000+0  15988-3 0  9999
2 40894  97.6559  14.3197 0029015  71.7050 288.7317 14.82372905550805
YAOGAN-28               
1 41026U 15064A   25334.82097698  .00009418  00000+0  39043-3 0  9998
2 41026  97.2793 112.9528 0011762 166.0893 194.0671 15.24031785560432
YAOGAN-29               
1 41038U 15069A   25334.87605324  .00000495  00000+0  67853-4 0  9999
2 41038  98.0230 358.0091 0000949  13.6187 346.5051 14.82860926541239
KENT RIDGE 1            
1 41167U 15077B   25334.25237851  .00005652  00000+0  21113-3 0  9997
2 41167  14.9810 303.7869 0008758 314.2019  45.7584 15.21483619550731
GAOFEN-4                
1 41194U 15083A   25334.88011492 -.00000312  00000+0  00000+0 0  9991
2 41194   0.1371  80.4522 0003543 108.7748 303.2916  1.00267805 36545
JASON-3                 
1 41240U 16002A   25334.86671065 -.00000020  00000+0  16653-3 0  9992
2 41240  66.0393 182.7864 0007164 270.1399  89.8798 12.87625762461719
SENTINEL-3A             
1 41335U 16011A   25334.81904985  .00000147  00000+0  78902-4 0  9997
2 41335  98.6223  40.0045 0001014  90.6975 269.4321 14.26739088509776
